[{"OBJECT_NAME":"DAQI 1","OBJECT_ID":"2022-039A","EPOCH":"2026-03-09T22:54:20.613600","MEAN_MOTION":14.57656651,"ECCENTRICITY":0.00031421,"INCLINATION":98.1406,"RA_OF_ASC_NODE":9.9086,"ARG_OF_PERICENTER":179.0073,"MEAN_ANOMALY":181.1133,"EPHEMERIS_TYPE":0,"CLASSIFICATION_TYPE":"U","NORAD_CAT_ID":52257,"ELEMENT_SET_NO":999,"REV_AT_EPOCH":20748,"BSTAR":0.00015776959,"MEAN_MOTION_DOT":6.74e-6,"MEAN_MOTION_DDOT":0},{"OBJECT_NAME":"COSMOS 2251 DEB","OBJECT_ID":"1993-036BWP","EPOCH":"2026-03-09T22:56:12.678720","MEAN_MOTION":14.59377585,"ECCENTRICITY":0.00174582,"INCLINATION":74.0335,"RA_OF_ASC_NODE":268.5555,"ARG_OF_PERICENTER":32.3801,"MEAN_ANOMALY":327.8432,"EPHEMERIS_TYPE":0,"CLASSIFICATION_TYPE":"U","NORAD_CAT_ID":40810,"ELEMENT_SET_NO":999,"REV_AT_EPOCH":62955,"BSTAR":0.00070495867,"MEAN_MOTION_DOT":3.316e-5,"MEAN_MOTION_DDOT":0}]
